UBAKUSAT                
1 43467U 98067NQ  19328.27591748  .00024373  00000-0  23086-3 0  9991
2 43467  51.6358 255.3897 0000986  18.4335 341.6696 15.66802218 87706
BATSU-CS1 (IRAZU)       
1 43468U 98067NR  19328.74377226  .00097848  00000-0  49099-3 0  9996
2 43468  51.6356 235.1315 0003446 129.1179 231.0129 15.80947200187998
CUBERRT                 
1 43546U 98067NU  19328.82294953  .00012801  00000-0  11880-3 0  9990
2 43546  51.6368 251.5442 0004303  34.6590 325.4686 15.67851916 77932
TEMPEST-D               
1 43547U 98067NV  19328.72783298  .00024127  00000-0  30119-3 0  9995
2 43547  51.6377 268.1940 0005566  10.7589 349.3522 15.59713674 77387
RAINCUBE                
1 43548U 98067NW  19328.40760514  .00024998  00000-0  24920-3 0  9996
2 43548  51.6357 260.7536 0005165  33.4980 326.6342 15.65495111 77903
HALOSAT                 
1 43549U 98067NX  19328.29397353  .00027760  00000-0  27754-3 0  9999
2 43549  51.6369 261.5249 0005044  35.0053 325.1273 15.65359355 77447
ENDUROSAT ONE           
1 43551U 98067NZ  19328.24283335  .00034837  00000-0  31159-3 0  9998
2 43551  51.6357 257.4168 0005588  47.2326 312.9139 15.68004393 77900
EQUISAT                 
1 43552U 98067PA  19328.26197766  .00024418  00000-0  24176-3 0  9998
2 43552  51.6377 260.5982 0005941  39.6178 320.5251 15.65677744 77829
AEROCUBE 12A            
1 43556U 18046C   19328.61747834  .00002566  00000-0  10184-3 0  9991
2 43556  51.6417  14.0874 0007841 278.6537  81.3555 15.29148704 75876
AEROCUBE 12B            
1 43557U 18046D   19328.77749485  .00000864  00000-0  42830-4 0  9996
2 43557  51.6438  13.6488 0007866 280.3027  79.7066 15.28966814 75841
UITMSAT-1               
1 43589U 98067PD  19328.23230951  .00030450  00000-0  29200-3 0  9995
2 43589  51.6346 261.0516 0005573  50.2363 309.9123 15.66349120 73550
MAYA-1                  
1 43590U 98067PE  19328.09816217  .00029826  00000-0  28612-3 0  9997
2 43590  51.6354 261.6629 0005650  51.3666 308.7835 15.66351350 73461
BHUTAN-1                
1 43591U 98067PF  19328.84831524  .00028052  00000-0  26826-3 0  9994
2 43591  51.6357 257.7103 0005725  52.7500 307.4018 15.66464026 73580
SIRIUSSAT-1             
1 43595U 98067PG  19328.80179627  .00024430  00000-0  24545-3 0  9995
2 43595  51.6351 260.3648 0002907  27.9850 332.1301 15.65320779 72723
SIRIUSSAT-2             
1 43596U 98067PH  19328.84885866  .00025260  00000-0  25522-3 0  9997
2 43596  51.6362 260.7325 0003295  23.1610 336.9534 15.65157124 72727
TANUSHA-3               
1 43597U 98067PJ  19328.82479149  .00037175  00000-0  32938-3 0  9996
2 43597  51.6341 256.7216 0003417  50.5226 309.6073 15.68214636 72777
SURFSAT                 
1 43614U 18070B   19328.82928995  .00003655  00000-0  96846-4 0  9995
2 43614  93.0390  69.4615 0017823  57.8171 302.4809 15.38239350 66866
CP7 (DAVE)              
1 43615U 18070C   19328.77944685  .00003463  00000-0  92074-4 0  9990
2 43615  93.0391  69.4391 0017970  57.3532 302.9453 15.38134566 66850
ELFIN-B                 
1 43616U 18070D   19328.84026752  .00004526  00000-0  11665-3 0  9992
2 43616  93.0353  69.3710 0018620  59.8139 300.4956 15.39056653 66881
ELFIN-A                 
1 43617U 18070E   19328.76266101  .00005475  00000-0  14069-3 0  9993
2 43617  93.0408  69.6792 0017763  57.2658 303.0305 15.39157465 66870
CUBEBEL-1 (BSUSAT-1)    
1 43666U 18083E   19329.17036142  .00001064  00000-0  55828-4 0  9996
2 43666  97.5091 352.4881 0015029   0.8025  71.7015 15.17849104 59477
DEBRISSAT-2             
1 43680U 98067PR  19328.40716548  .00053223  00000-0  42077-3 0  9997
2 43680  51.6346 256.9762 0003986  70.9387 289.2042 15.70814585 81465
CICERO 10               
1 43690U 18088A   19328.70604054  .00001311  00000-0  59110-4 0  9992
2 43690  85.0409 213.8203 0014781 353.7318   6.3736 15.19896815 57505
IRVINE01                
1 43693U 18088D   19328.76097789  .00003477  00000-0  15013-3 0  9990
2 43693  85.0383 213.0392 0017409 335.2269  24.8135 15.21986722 57553
PROXIMA I               
1 43694U 18088E   19328.80079975  .00001160  00000-0  49405-4 0  9993
2 43694  85.0352 212.8057 0018106 325.6221  34.3848 15.21626718 57565
PROXIMA II              
1 43696U 18088G   19328.79945906  .00001151  00000-0  48999-4 0  9996
2 43696  85.0352 212.8084 0018144 325.5581  34.4483 15.21630796 57564
FACSAT-1                
1 43721U 18096C   19329.17606480  .00001550  00000-0  61622-4 0  9999
2 43721  97.4446  38.6752 0019118 124.8572 321.4238 15.26680111 55063
CENTAURI-2              
1 43722U 18096D   19328.78594069  .00002855  00000-0  10999-3 0  9994
2 43722  97.4457  38.4010 0019326 126.8352 233.4663 15.27017737 55007
INNOSAT-2               
1 43738U 18096V   19329.15577074  .00003169  00000-0  11309-3 0  9995
2 43738  97.4458  39.9414 0025079 135.1818 309.4507 15.29336041 55141
SIRION PATHFINDER-2     
1 43759U 18099B   19328.79742718  .00000233  00000-0  26414-4 0  9992
2 43759  97.7301  38.7025 0015200 145.5743 214.6466 14.95192184 53190
CORVUS-BC 4             
1 43767U 18099K   19328.79583336  .00000209  00000-0  24586-4 0  9991
2 43767  97.7287  38.3312 0012650 147.9951 212.2040 14.94634164 53189
MOVE-II                 
1 43780U 18099Y   19328.75253791  .00001061  00000-0  10160-3 0  9990
2 43780  97.7303  38.5592 0014374 156.1884 204.0005 14.95201590 53170
SPACEBEE-7              
1 43816U 18099BL  19328.73427159  .00000575  00000-0  57037-4 0  9993
2 43816  97.7313  38.8007 0014480 142.2720 217.9519 14.95524129 52749
SPACEBEE-5              
1 43817U 18099BM  19328.75596916  .00001717  00000-0  15835-3 0  9992
2 43817  97.7350  39.0014 0014464 142.6277 217.5953 14.95910752 52755
SPACEBEE-6              
1 43818U 18099BN  19328.85309426  .00000340  00000-0  35718-4 0  9996
2 43818  97.7324  38.9751 0014340 142.0281 218.1954 14.95647075 52916
SHIELDS 1               
1 43850U 18104B   19328.45030875  .00000042  00000-0  00000-0 0  9995
2 43850  85.0256 311.5185 0017401 105.0584 255.2587 15.21203445 52152
STF-1                   
1 43852U 18104D   19328.49916543  .00000042  00000-0  00000+0 0  9995
2 43852  85.0298 311.8655 0017127 117.2123 243.1020 15.20860418 52149
ZACUBE-2                
1 43907U 18111AH  19328.80666728  .00000710  00000-0  31661-4 0  9990
2 43907  97.2786 229.5626 0022522 146.0760 214.1923 15.24352694 50685
LUME 1                  
1 43908U 18111AJ  19328.77886588  .00001234  00000-0  52528-4 0  9992
2 43908  97.2786 229.5965 0022326 146.0678 214.1993 15.24622514 50680
AOBA VELOX-IV           
1 43940U 19003J   19329.16039381  .00002073  00000-0  87138-4 0  9991
2 43940  97.2585  22.2226 0023074 226.5604 192.6972 15.24297808 47378
CATSAT-2                
1 44029U 98067PV  19328.84074666  .00020475  00000-0  25833-3 0  9995
2 44029  51.6391 273.4762 0005155  37.8403 322.2952 15.59545287 46385
DELPHINI                
1 44030U 98067PW  19328.30199469  .00019923  00000-0  24888-3 0  9992
2 44030  51.6364 275.8399 0005010  35.8927 324.2402 15.59828505 46275
UNITE                   
1 44031U 98067PX  19328.86226165  .00012379  00000-0  16981-3 0  9991
2 44031  51.6383 275.1017 0003732  34.9777 325.1460 15.57763052 46333
TECHEDSAT 8             
1 44032U 98067PY  19328.84679313  .00068414  00000-0  58215-3 0  9994
2 44032  51.6354 265.2151 0004611  71.0224 289.1272 15.68932103 46446
CATSAT-1                
1 44033U 98067PZ  19328.84070700  .00022699  00000-0  28570-3 0  9996
2 44033  51.6393 273.4781 0005005  38.1821 321.9526 15.59539086 46298
RAAVANA-1               
1 44329U 98067QE  19328.28131957  .00013267  00000-0  20702-3 0  9994
2 44329  51.6398 284.7378 0006186 321.1885  38.8661 15.54154665 24903
UGUISU                  
1 44330U 98067QF  19328.86422922  .00012765  00000-0  19970-3 0  9992
2 44330  51.6399 281.8797 0006133 322.1936  37.8623 15.54123301 24976
NEPALISAT-1             
1 44331U 98067QG  19328.72786108  .00012533  00000-0  19566-3 0  9991
2 44331  51.6401 282.4707 0006228 324.4993  35.5583 15.54200625 24966
SPOOQY-1                
1 44332U 98067QH  19328.40348594  .00012018  00000-0  18803-3 0  9991
2 44332  51.6400 284.0516 0005134 327.3018  32.7654 15.54191567 24879
SPACEBEE-9              
1 44370U 19037F   19328.97706223  .00006186  00000-0  15681-3 0  9992
2 44370  45.0141 182.0320 0013724  56.5916 303.6290 15.40569821 22884
SPACEBEE-8              
1 44371U 19037G   19328.91206336  .00013343  00000-0  31178-3 0  9999
2 44371  45.0116 181.5533 0012271  63.2918 296.9263 15.42132157 22873
IOD-1 GEMS              
1 44385U 98067QK  19328.49557361  .00018654  00000-0  28379-3 0  9993
2 44385  51.6412 283.9367 0002037 289.0248  71.0523 15.54568492 22391
MOVE-IIB                
1 44398U 19038N   19329.21075255  .00001570  00000-0  94822-4 0  9992
2 44398  97.5085 288.4874 0026821 112.5155 247.8919 15.11867352 21567
SONATE                  
1 44400U 19038Q   19328.81515632  .00000529  00000-0  34574-4 0  9990
2 44400  97.5109 288.1139 0026806 112.6088 247.7982 15.11749231 21506
LUCKY-7                 
1 44406U 19038W   19328.86315165  .00000666  00000-0  42296-4 0  9992
2 44406  97.5108 288.2006 0026303 112.2880 248.1143 15.11959923 21508
BEESAT 9                
1 44412U 19038AC  19328.40336511  .00000864  00000-0  53842-4 0  9996
2 44412  97.5103 287.7361 0024295 119.0763 241.2905 15.11952247 21132
JAISAT-1                
1 44419U 19038F   19328.82026301  .00000956  00000-0  58427-4 0  9998
2 44419  97.5105 288.2552 0023151 117.3744 242.9846 15.12440613 21513
SWIATOWID               
1 44426U 98067QL  19329.09818760  .00017549  00000-0  26684-3 0  9998
2 44426  51.6439 280.9689 0002193 274.5878 196.7720 15.54630659 22503
KRAKSAT                 
1 44427U 98067QM  19328.29535593  .00010201  00000-0  16689-3 0  9992
2 44427  51.6414 285.5939 0002873 271.7549  88.3112 15.53146977 22410
